[Satellite]
VERSION=1.1
NAME=CZ-6A DEB
NICKNAME=CZ-6A DEB
TLE1=1 54265U 22151G   22342.46776648  .00000604  00000+0  79931-3 0  9995
TLE2=2 54265  98.9962 345.2323 0384406   8.8725 351.8952 13.37533828  3519
STATUS=0
